#cP2016  7 22  0  0  0.00000000      96 ORBIT IGb08 HLM  IGS
## 1906 432000.00000000   900.00000000 57591 0.0000000000000
+   32   G01G02G03G04G05G06G07G08G09G10G11G12G13G14G15G16G17
+        G18G19G20G21G22G23G24G25G26G27G28G29G30G31G32  0  0
+          0  0  0  0  0  0  0  0  0  0  0  0  0  0  0  0  0
+          0  0  0  0  0  0  0  0  0  0  0  0  0  0  0  0  0
+          0  0  0  0  0  0  0  0  0  0  0  0  0  0  0  0  0
++         2  2  2  0  2  2  2  2  2  2  2  2  2  2  2  2  2
++         2  2  2  2  2  2  2  2  0  2  2  2  2  2  2  0  0
++         0  0  0  0  0  0  0  0  0  0  0  0  0  0  0  0  0
++         0  0  0  0  0  0  0  0  0  0  0  0  0  0  0  0  0
++         0  0  0  0  0  0  0  0  0  0  0  0  0  0  0  0  0
%c G  cc GPS ccc cccc cccc cccc cccc ccccc ccccc ccccc ccccc
%c cc cc ccc ccc cccc cccc cccc cccc ccccc ccccc ccccc ccccc
%f  1.2500000  1.025000000  0.00000000000  0.000000000000000
%f  0.0000000  0.000000000  0.00000000000  0.000000000000000
%i    0    0    0    0      0      0      0      0         0
%i    0    0    0    0      0      0      0      0         0
/* FINAL ORBIT COMBINATION FROM WEIGHTED AVERAGE OF:        
/* cod emr esa gfz grg jpl mit ngs sio                      
/* REFERENCED TO IGS TIME (IGST) AND TO WEIGHTED MEAN POLE: 
/* PCV:IGS08_1904 OL/AL:FES2004  NONE     Y  ORB:CMB CLK:CMB
*  2016  7 22 18 45  0.00000000
PG01  15758.354802    691.540353  21313.659594     27.788276  4  4  3  97       
PG02 -14390.052687 -20763.605717  -8355.623538    573.664253  9  8  2  85       
PG03  20944.876747 -10148.097429  12800.571229    -75.052158  5  5  4  73       
PG04  -2315.602040  19796.264115 -17637.468813 999999.999999
PG05 -13391.929725  -8194.679492 -21501.177956   -103.558314  7  6  4  74       
PG06  -5806.893616 -25623.036677   3901.046659    222.198705  6 10  6  92       
PG07   8625.495533 -16226.602368 -18870.839046    440.197841  4  4  2 110       
PG08  26004.537217   5482.906685   -588.336189    -43.749729  2  5    107       
PG09  18640.809940  -8563.690179 -16889.546823    172.412094  5  6  6 103       
PG10  -7366.670105  22035.913155  12822.449339    -70.297458  4  5  6  83       
PG11  20299.091199   4302.123064  16026.775189   -656.771254  3  5  4  90       
PG12 -20595.002107   6935.925760  14987.793339    385.883011  6  7  3  79       
PG13 -21994.099200 -12704.955778  -7740.106752    -32.831252  7  9  5 121       
PG14   8202.005106  16431.489510  19517.075745    -25.947310  5  7  5  42       
PG15 -26559.523896  -3061.116133    841.817952   -320.432209  7  9  4 113       
PG16  12453.161291   8112.328613 -22144.742728     -3.224187  6  8  6 114       
PG17    276.081154 -15292.659660  22062.342950   -203.849096  4  8  2  95       
PG18 -15329.204211  21445.840916   2381.585200    539.240484  7 11  5  90       
PG19  -9196.300372 -16046.888462  18670.923110   -524.787399  5  9  7  99       
PG20 -20277.391671   8032.932857 -15334.294152    425.744326  6  8  6 113       
PG21  -6043.782186  19017.131783 -16663.582449   -528.932800  6  7  4 119       
PG22  19602.931769  -2285.676365  18068.721801    290.461655  5  4  1  93       
PG23  24798.561616  -2169.245774  -9663.221459   -183.193221  2  6  5 108       
PG24 -16883.184117  -4514.255702  19996.551479    -20.559341  3  6  5  50       
PG25 -19491.569243  17227.602014   4707.295263   -213.220764  7  6  5  95       
PG26   4160.132706  16743.987241 -20182.957402 999999.999999
PG27  20778.761502  12116.153571 -11493.527129    117.730587  3  5  3 110       
PG28  10223.762317 -21403.443994  12531.533917    539.079447  5  9  5 112       
PG29 -20800.809814   5418.000156 -15581.674416    655.060950  6  6  5 112       
PG30   3007.823110 -23246.841381 -12383.472199    141.226098  6  5  5 121       
PG31   7348.975157  25315.237875    320.546042    257.502095  6  8  4  85       
PG32   1136.239185  15589.399126  21489.568506    -55.978598  6  6  5  82       
*  2016  7 22 19  0  0.00000000
PG01  16530.828005   2972.638892  20542.734382     27.789379  4  4  3  92       
PG02 -14474.155212 -21651.493671  -5710.731362    573.660378  9  8  2 102       
PG03  20085.679874  -8795.586661  14991.900754    -75.054843  6  5  5  75       
PG04  -3645.878092  21127.220757 -15720.717585 999999.999999
PG05 -11851.881809 -10106.615651 -21573.955657   -103.555617  7  6  3 110       
PG06  -5373.705188 -25140.328662   6679.862937    222.203377  6 10  6 106       
PG07   9488.719288 -14121.797140 -20135.070506    440.195286  4  5  2 109       
PG08  25733.888754   5685.971947  -3435.103088    -43.750529  2  5    110       
PG09  20410.563761  -8092.765513 -14966.687024    172.418603  5  5  6  91       
PG10  -8382.194612  22921.882557  10408.847001    -70.303701  4  5  7  79       
PG11  21299.344554   5874.123161  14190.227868   -656.772080  3  5  4  85       
PG12 -19436.782116   5480.381935  17003.046569    385.883807  6  6  3 101       
PG13 -20954.385974 -12623.522258 -10362.869149    -32.833503  8  9  5 111       
PG14   6006.441188  15975.762969  20662.075538    -25.948866  5  7  5  91       
PG15 -26478.234099  -3368.728765  -1930.295522   -320.433550  7  9  4 113       
PG16  10714.693670   9923.235988 -22283.280960     -3.222513  6  9  7 117       
PG17   2679.058824 -14777.967338  22238.058131   -203.848726  5  8  2  97       
PG18 -15660.822148  21261.889330   -412.555281    539.244419  7 11  6  95       
PG19  -6973.003921 -15577.078283  19998.493202   -524.787234  5  9  6  95       
PG20 -19414.069022   6391.714394 -17132.230466    425.746271  6  7  5  97       
PG21  -7044.065684  17105.799606 -18222.506629   -528.933371  7  7  5 116       
PG22  18444.552309   -518.021653  19384.527876    290.453233  6  4  2 116       
PG23  25719.106861  -1765.555856  -7085.137281   -183.194396  3  6  5  99       
PG24 -17602.962992  -6625.297791  18771.042127    -20.558746  3  6  5  87       
PG25 -19198.683886  16540.999515   7494.583497   -213.227121  7  6  5  98       
PG26   2660.128462  18410.971278 -18942.584224 999999.999999
PG27  19334.185047  12052.393587 -13834.438663    117.734581  3  4  3 116       
PG28  11157.628593 -22172.868111  10014.315015    539.081670  5  8  4 111       
PG29 -22381.756159   4898.509376 -13408.684034    655.060340  5  6  5 114       
PG30   3667.606913 -21826.615475 -14602.657704    141.228157  5  5  5 117       
PG31   7047.377052  25213.033550   3208.570576    257.500388  7  8  4  90       
PG32  -1306.584298  15215.392646  21744.845527    -55.988618  5  6  5  72       
*  2016  7 22 19 15  0.00000000
PG01  17379.125683   5108.664124  19417.317966     27.790478  4  4  3 104       
PG02 -14472.172013 -22258.329041  -2968.627984    573.656757  9  9  2 109       
PG03  19159.855357  -7212.083770  16925.290457    -75.057503  6  5  4  96       
PG04  -4761.542967  22346.833984 -13534.218934 999999.999999
PG05 -10415.424227 -12084.488399 -21277.556926   -103.553331  7  6  3  87       
PG06  -4790.627635 -24399.427012   9343.733410    222.208073  6 10  6 107       
PG07  10506.480318 -11952.502269 -21044.934907    440.192855  5  6  2  94       
PG08  25156.879442   5871.411226  -6222.856089    -43.752187  3  5    110       
PG09  21971.301074  -7736.297690 -12786.610250    172.425071  5  5  6  85       
PG10  -9184.149300  23629.737750   7815.560964    -70.309938  4  5  6  86       
PG11  22204.668746   7241.462191  12100.964424   -656.773628  3  5  5  94       
PG12 -18227.470573   3796.655038  18720.337289    385.884507  6  6  4  80       
PG13 -19632.805084 -12534.248103 -12807.436524    -32.835748  8  9  5 115       
PG14   3682.507621  15617.868658  21460.960643    -25.950868  5  6  4  85       
PG15 -26104.373543  -3663.998223  -4669.936263   -320.435157  8 10  4 110       
PG16   9083.721498  11828.887928 -22041.936005     -3.220357  7  9  7 120       
PG17   5107.624924 -14397.531109  22042.723471   -203.848573  5  7  2 106       
PG18 -15825.801464  20829.405078  -3199.421678    539.248039  6 10  6  99       
PG19  -4600.154120 -15199.679726  20971.294963   -524.787002  5  9  6 104       
PG20 -18532.476738   4554.529121 -18638.955937    425.748038  6  6  5 111       
PG21  -8202.585563  15094.641633 -19445.930572   -528.934821  7  7  5 104       
PG22  17297.618647   1407.643124  20374.257356    290.444703  6  4  3  98       
PG23  26363.516422  -1442.465604  -4387.459761   -183.196061  3  6  5 105       
PG24 -18361.109237  -8553.739660  17222.972354    -20.558892  4  6  5  89       
PG25 -18760.271047  15588.128079  10150.910401   -213.233486  6  6  5 112       
PG26   1341.311012  20024.834156 -17375.849520 999999.999999
PG27  17638.247815  12041.408882 -15939.771428    117.738603  4  4  3 122       
PG28  11861.629631 -22771.978355   7328.726861    539.083647  6  8  4 111       
PG29 -23732.538815   4508.246724 -11004.583586    655.059694  5  6  5 107       
PG30   4478.663030 -20218.988960 -16569.283223    141.230203  5  5  5 113       
PG31   6619.759279  24823.558218   6040.216571    257.498638  7  7  4 105       
PG32  -3773.405538  14967.739322  21626.451972    -55.998656  4  7  6  93       
EOF
